NORAD_CAT_ID,OBJECT_NAME,OBJECT_TYPE,EPOCH,MEAN_MOTION,ECCENTRICITY,INCLINATION,RA_OF_ASC_NODE,ARG_OF_PERICENTER,MEAN_ANOMALY,BSTAR,MEAN_MOTION_DOT,MEAN_MOTION_DDOT,TLE_LINE0,TLE_LINE1,TLE_LINE2,SEMIMAJOR_AXIS,PERIOD,APOGEE,PERIGEE,DECAYED
52684.0,STARLINK-4014,PAYLOAD,2022-07-08 22:00:01,15.60648155,0.0001858,53.2173,43.26300000000001,35.5633,179.1928,-0.013836,-0.01063086,0.0,0 STARLINK-4014,1 52684U 22053AE  22189.91668981 -.01063086  00000-0 -13836-1 0  9995,2 52684  53.2173  43.2630 0001858  35.5633 179.1928 15.60648155  1305,6763.920999999999,92.269,387.042,384.529,0.0
52684.0,STARLINK-4014,PAYLOAD,2022-07-09 04:00:00,15.60079856,0.0001605,53.2172,42.0475,43.2882,136.5256,-0.014178,-0.01065396,0.0,0 STARLINK-4014,1 52684U 22053AE  22190.16667824 -.01065396  00000-0 -14178-1 0  9995,2 52684  53.2172  42.0475 0001605  43.2882 136.5256 15.60079856  8461,6765.563,92.303,388.514,386.342,0.0
52684.0,STARLINK-4014,PAYLOAD,2022-07-09 14:00:01,15.59128153,0.0001625,53.2175,40.0228,32.6313,327.9144,-0.014636,-0.01060802,0.0,0 STARLINK-4014,1 52684U 22053AE  22190.58334491 -.01060802  00000-0 -14636-1 0  9998,2 52684  53.2175  40.0228 0001625  32.6313 327.9144 15.59128153  1302,6768.316,92.359,391.281,389.081,0.0
52684.0,STARLINK-4014,PAYLOAD,2022-07-09 20:00:01,15.58559792,0.0001763,53.2174,38.8122,29.9084,294.3895,-0.014991,-0.01063049,0.0,0 STARLINK-4014,1 52684U 22053AE  22190.83334491 -.01063049  00000-0 -14991-1 0  9996,2 52684  53.2174  38.8122 0001763  29.9084 294.3895 15.58559792  1302,6769.9609999999975,92.393,393.02,390.633,0.0
52684.0,STARLINK-4014,PAYLOAD,2022-07-10 14:00:01,15.56850368,0.0001842,53.2176,35.1795,35.4673,177.0124,-0.015949,-0.01060461,0.0,0 STARLINK-4014,1 52684U 22053AE  22191.58334491 -.01060461  00000-0 -15949-1 0  9998,2 52684  53.2176  35.1795 0001842  35.4673 177.0124 15.56850368  1307,6774.916,92.494,398.029,395.533,0.0
52684.0,STARLINK-4014,PAYLOAD,2022-07-10 22:00:00,15.56092111,0.0001728,53.2175,33.5708,35.3289,245.9689,-0.016455,-0.01063167,0.0,0 STARLINK-4014,1 52684U 22053AE  22191.91667824 -.01063167  00000-0 -16455-1 0  9993,2 52684  53.2175  33.5708 0001728  35.3289 245.9689 15.56092111  1302,6777.1169999999975,92.54,400.153,397.811,0.0
52684.0,STARLINK-4014,PAYLOAD,2022-07-11 06:00:00,15.55333035,0.0001335,53.2173,31.9604,43.9801,305.2256,-0.0169479999999999,-0.0106427,0.0,0 STARLINK-4014,1 52684U 22053AE  22192.25001157 -.01064270  00000-0 -16948-1 0  9995,2 52684  53.2173  31.9604 0001335  43.9801 305.2256 15.55333035  8787,6779.321999999999,92.585,402.092,400.282,0.0
52684.0,STARLINK-4014,PAYLOAD,2022-07-11 14:00:01,15.5457087,0.0001587,53.2175,30.3526,36.6858,19.5152,-0.01734,-0.01059177,0.0,0 STARLINK-4014,1 52684U 22053AE  22192.58334491 -.01059177  00000-0 -17340-1 0  9998,2 52684  53.2175  30.3526 0001587  36.6858  19.5152 15.54570870  1305,6781.5369999999975,92.63,404.479,402.326,0.0
52684.0,STARLINK-4014,PAYLOAD,2022-07-11 22:00:00,15.53811764,0.0001732,53.2174,28.7494,38.8456,83.4356,-0.017837,-0.01059534,0.0,0 STARLINK-4014,1 52684U 22053AE  22192.91667824 -.01059534  00000-0 -17837-1 0  9992,2 52684  53.2174  28.7494 0001732  38.8456  83.4356 15.53811764  1304,6783.746,92.675,406.786,404.436,0.0
52684.0,STARLINK-4014,PAYLOAD,2022-07-12 14:00:01,15.52293083,0.0001525,53.2176,25.5423,47.687,204.02,-0.018845,-0.01059058,0.0,0 STARLINK-4014,1 52684U 22053AE  22193.58334491 -.01059058  00000-0 -18845-1 0  9998,2 52684  53.2176  25.5423 0001525  47.6870 204.0200 15.52293083  1307,6788.17,92.766,411.07,409.0,0.0
52684.0,STARLINK-4014,PAYLOAD,2022-07-12 22:00:00,15.51534289,0.0001631,53.2176,23.9445,38.2274,276.8219,-0.019401,-0.01060661,0.0,0 STARLINK-4014,1 52684U 22053AE  22193.91667824 -.01060661  00000-0 -19401-1 0  9995,2 52684  53.2176  23.9445 0001631  38.2274 276.8219 15.51534289  1307,6790.3830000000025,92.811,413.355,411.14,0.0
52684.0,STARLINK-4014,PAYLOAD,2022-07-13 04:00:00,15.50925598,0.0001644,53.2173,22.7452,42.0909,229.8762,-0.018073,-0.00974471,0.0,0 STARLINK-4014,1 52684U 22053AE  22194.16667824 -.00974471  00000-0 -18073-1 0  9999,2 52684  53.2173  22.7452 0001644  42.0909 229.8762 15.50925598  9081,6792.159000000002,92.848,415.141,412.908,0.0
52684.0,STARLINK-4014,PAYLOAD,2022-07-13 14:00:01,15.49983968,0.0001555,53.2178,20.75,44.6593,34.3643,-0.0027301,-0.00152951,0.0,0 STARLINK-4014,1 52684U 22053AE  22194.58334491 -.00152951  00000-0 -27301-2 0  9992,2 52684  53.2178  20.7500 0001555  44.6593  34.3643 15.49983968  9143,6794.91,92.904,417.832,415.718,0.0
52684.0,STARLINK-4014,PAYLOAD,2022-07-13 22:00:00,15.49834767,0.0001703,53.2171,19.1608,40.5544,99.464,0.0011701,0.00066406,0.0,0 STARLINK-4014,1 52684U 22053AE  22194.91667824  .00066406  00000-0  11701-2 0  9992,2 52684  53.2171  19.1608 0001703  40.5544  99.4640 15.49834767  9199,6795.346,92.913,418.36800000000005,416.054,0.0
52684.0,STARLINK-4014,PAYLOAD,2022-07-14 04:00:00,15.49953003,0.0001698,53.2149,17.9703,38.669,57.0443,-0.00075495,-0.00043168,0.0,0 STARLINK-4014,1 52684U 22053AE  22195.16667824 -.00043168  00000-0 -75495-3 0  9993,2 52684  53.2149  17.9703 0001698  38.6690  57.0443 15.49953003  9230,6795.0,92.906,418.019,415.712,0.0
52684.0,STARLINK-4014,PAYLOAD,2022-07-14 14:00:01,15.50021887,0.0001440999999999,53.2163,15.9738,50.6811,211.2144,-0.0064769999999999,-0.00353665,0.0,0 STARLINK-4014,1 52684U 22053AE  22195.58334491 -.00353665  00000-0 -64770-2 0  9999,2 52684  53.2163  15.9738 0001441  50.6811 211.2144 15.50021887  9305,6794.799,92.902,417.643,415.685,0.0
52684.0,STARLINK-4014,PAYLOAD,2022-07-14 22:00:00,15.49698999,0.0001571,53.2167,14.3796,48.1715,274.6966,-0.010711,-0.00562876,0.0,0 STARLINK-4014,1 52684U 22053AE  22195.91667824 -.00562876  00000-0 -10711-1 0  9996,2 52684  53.2167  14.3796 0001571  48.1715 274.6966 15.49698999  9357,6795.743,92.921,418.676,416.54,0.0
52684.0,STARLINK-4014,PAYLOAD,2022-07-15 06:00:00,15.49329508,0.0001530999999999,53.2174,12.7817,35.2384,348.0957,-0.020973,-0.01059703,0.0,0 STARLINK-4014,1 52684U 22053AE  22196.25001157 -.01059703  00000-0 -20973-1 0  9997,2 52684  53.2174  12.7817 0001531  35.2384 348.0957 15.49329508  9405,6796.823,92.943,419.729,417.648,0.0
52684.0,STARLINK-4014,PAYLOAD,2022-07-15 14:00:01,15.48569972,0.0001705,53.2174,11.1891,35.6365,47.4796,-0.021531,-0.01059154,0.0,0 STARLINK-4014,1 52684U 22053AE  22196.58334491 -.01059154  00000-0 -21531-1 0  9994,2 52684  53.2174  11.1891 0001705  35.6365  47.4796 15.48569972  1308,6799.045999999999,92.989,422.07,419.751,0.0
52684.0,STARLINK-4014,PAYLOAD,2022-07-15 22:00:00,15.47805452,0.0001645,53.2174,9.5999,43.0525,98.9341,-0.021923,-0.01050637,0.0,0 STARLINK-4014,1 52684U 22053AE  22196.91667824 -.01050637  00000-0 -21923-1 0  9992,2 52684  53.2174   9.5999 0001645  43.0525  98.9341 15.47805452  1304,6801.284000000002,93.035,424.268,422.03,0.0
52684.0,STARLINK-4014,PAYLOAD,2022-07-16 06:00:00,15.47049358,0.0001705,53.2175,8.0088,40.4373,159.5062,-0.022634,-0.01055877,0.0,0 STARLINK-4014,1 52684U 22053AE  22197.25001157 -.01055877  00000-0 -22634-1 0  9992,2 52684  53.2175   8.0088 0001705  40.4373 159.5062 15.47049358  9562,6803.5,93.08,426.525,424.205,0.0
52684.0,STARLINK-4014,PAYLOAD,2022-07-16 14:00:01,15.46290291,0.0001736,53.2176,6.4220000000000015,38.6634,218.3238,-0.023251,-0.01056338,0.0,0 STARLINK-4014,1 52684U 22053AE  22197.58334491 -.01056338  00000-0 -23251-1 0  9997,2 52684  53.2176   6.4220 0001736  38.6634 218.3238 15.46290291  1302,6805.726,93.126,428.773,426.41,0.0
52684.0,STARLINK-4014,PAYLOAD,2022-07-16 22:00:00,15.45529691,0.0001598,53.2174,4.838,37.7558,275.3625,-0.023814,-0.01053992,0.0,0 STARLINK-4014,1 52684U 22053AE  22197.91667824 -.01053992  00000-0 -23814-1 0  9991,2 52684  53.2174   4.8380 0001598  37.7558 275.3625 15.45529691  1301,6807.959,93.172,430.912,428.736,0.0
52684.0,STARLINK-4014,PAYLOAD,2022-07-17 06:00:00,15.44771233,0.000152,53.2175,3.2524,36.3902,331.9483,-0.024511,-0.01056588,0.0,0 STARLINK-4014,1 52684U 22053AE  22198.25001157 -.01056588  00000-0 -24511-1 0  9999,2 52684  53.2175   3.2524 0001520  36.3902 331.9483 15.44771233  9712,6810.187,93.218,433.087,431.017,0.0
52684.0,STARLINK-4014,PAYLOAD,2022-07-17 14:00:01,15.44013138,0.000165,53.2177,1.6712,36.3453,26.2985,-0.025205,-0.01058496,0.0,0 STARLINK-4014,1 52684U 22053AE  22198.58334491 -.01058496  00000-0 -25205-1 0  9996,2 52684  53.2177   1.6712 0001650  36.3453  26.2985 15.44013138  1301,6812.416,93.263,435.405,433.157,0.0
52684.0,STARLINK-4014,PAYLOAD,2022-07-17 22:00:00,15.43248918,0.0001799,53.2173,0.0924,35.6926,80.3457,-0.025645,-0.01050173,0.0,0 STARLINK-4014,1 52684U 22053AE  22198.91667824 -.01050173  00000-0 -25645-1 0  9994,2 52684  53.2173   0.0924 0001799  35.6926  80.3457 15.43248918  1306,6814.665,93.31,437.756,435.304,0.0
52684.0,STARLINK-4014,PAYLOAD,2022-07-18 06:00:00,15.42490853,0.0001672,53.2174,358.5123,42.3359,126.1841,-0.026377,-0.01067174,0.0,0 STARLINK-4014,1 52684U 22053AE  22199.25001157 -.01067174  00000-0 -26377-1 0  9995,2 52684  53.2174 358.5123 0001672  42.3359 126.1841 15.42490853  9876,6816.898,93.355,439.902,437.62300000000016,0.0
52684.0,STARLINK-4014,PAYLOAD,2022-07-18 14:00:01,15.41732151,0.0001877,53.2177,356.9367,37.26300000000001,182.8243,-0.02709,-0.01068323,0.0,0 STARLINK-4014,1 52684U 22053AE  22199.58334491 -.01068323  00000-0 -27090-1 0  9991,2 52684  53.2177 356.9367 0001877  37.2630 182.8243 15.41732151  1307,6819.134,93.401,442.279,439.719,0.0
52684.0,STARLINK-4014,PAYLOAD,2022-07-18 22:00:00,15.4097188,0.0001828,53.2172,355.3632,34.0871,236.6553,-0.027728,-0.01066155,0.0,0 STARLINK-4014,1 52684U 22053AE  22199.91667824 -.01066155  00000-0 -27728-1 0  9996,2 52684  53.2172 355.3632 0001828  34.0871 236.6553 15.40971880  1303,6821.377,93.448,444.489,441.995,0.0
